SL-14 R/B               
1 20511U 90018B   26195.82458211  .00000215  00000+0  23938-4 0  9997
2 20511  82.5217 104.2767 0017054  38.0266 322.2148 14.82233955941418
HST                     
1 20580U 90037B   26195.52261565  .00003561  00000+0  10789-3 0  9991
2 20580  28.4723 253.7049 0002220  97.0463 263.0385 15.31057008792766
SL-16 R/B               
1 20625U 90046B   26195.80052534  .00000234  00000+0  14504-3 0  9999
2 20625  70.9986  30.9528 0012417 115.0915 245.1498 14.15024507866372
COSMOS 2084             
1 20663U 90055A   26195.54755292  .00000858  00000+0  72029-4 0  9992
2 20663  62.7884 262.6983 0008008 317.5125  42.5355 15.06222480955429
SL-6 R/B(2)             
1 20666U 90055D   26195.30833460  .00001022  00000+0  86685-4 0  9990
2 20666  62.7804 183.0791 0044993   8.8848 351.3037 15.04085810957233
SL-8 R/B                
1 20775U 90078B   26195.80695175  .00009940  00000+0  28172-3 0  9993
2 20775  82.9037 136.6628 0343525 304.8543  52.0813 14.93566536828244
SL-8 R/B                
1 21088U 91006B   26195.81224520  .00000091  00000+0  75496-4 0  9996
2 21088  82.9408  75.4811 0023458  41.5485  29.5651 13.77509169781571
OKEAN-3                 
1 21397U 91039A   26195.59076487  .00001747  00000+0  11960-3 0  9991
2 21397  82.5142 213.8044 0012352 256.9890 102.9958 15.05432304884124
COSMOS 2151             
1 21422U 91042A   26195.80159126  .00000664  00000+0  50515-4 0  9997
2 21422  82.4981 321.0307 0011999 356.8608   3.2538 15.00512432882255
SL-14 R/B               
1 21423U 91042B   26195.83700487  .00000179  00000+0  19595-4 0  9997
2 21423  82.4932 100.9674 0016944 178.0767 182.0515 14.81917929871907
ERS-1                   
1 21574U 91050A   26195.68970525  .00000153  00000+0  63404-4 0  9998
2 21574  98.7797 217.0592 0031833 183.2424 176.8561 14.39532781834008
ARIANE 40 R/B           
1 21610U 91050F   26195.71659169  .00000121  00000+0  48673-4 0  9997
2 21610  98.1864 243.0592 0004181  62.5151 297.6464 14.42971720837314
INTERCOSMOS 25          
1 21819U 91086A   26195.59788142  .00000183  00000+0  33527-4 0  9997
2 21819  82.6009 233.2225 1484556 203.2142 149.4604 12.12240062512066
SL-8 R/B                
1 21876U 92008B   26195.47839396  .00000103  00000+0  90059-4 0  9995
2 21876  82.9271 173.4962 0035632 138.5622 337.8235 13.75983684726856
SL-8 R/B                
1 21938U 92020B   26195.69486830  .00000017  00000+0  19552-5 0  9997
2 21938  82.9280  59.4220 0027980 304.9708 115.6914 13.75550267718591
USA 81                  
1 21949U 92023A   26195.72828755  .00000109  00000+0  32856-4 0  9995
2 21949  85.0051  58.1082 0002004  65.1095 295.0306 14.32404872112972
COSMOS 2219             
1 22219U 92076A   26195.84885613 -.00000213  00000+0 -87208-4 0  9992
2 22219  71.0612 112.2476 0018243 358.0043   2.1003 14.14108844736354
SL-16 R/B               
1 22220U 92076B   26195.71546007  .00000169  00000+0  10831-3 0  9996
2 22220  71.0005 280.7921 0015026 262.7553 213.2657 14.16877254739826
COSMOS 2221             
1 22236U 92080A   26195.35159665  .00000840  00000+0  71267-4 0  9995
2 22236  82.5046 157.7385 0015660 122.8012 237.4721 14.96602587799731
SL-16 R/B               
1 22285U 92093B   26195.80350426 -.00000232  00000+0 -94634-4 0  9991
2 22285  71.0218  97.4176 0002288 135.8346 224.2960 14.15465963731149
COSMOS 2228             
1 22286U 92094A   26195.81538885  .00000834  00000+0  68782-4 0  9992
2 22286  82.5188 115.5794 0016282 230.5333 129.4450 14.97674800795084
SL-16 R/B               
1 22566U 93016B   26195.71582693  .00000175  00000+0  11429-3 0  9996
2 22566  71.0085 308.3875 0008864 138.8661 221.3131 14.15312394720147
COSMOS 2242             
1 22626U 93024A   26195.85437183  .00000882  00000+0  74259-4 0  9996
2 22626  82.5198 145.0728 0014645 233.8768 126.1100 14.96984317799410
SL-16 R/B               
1 22803U 93059B   26195.80446912 -.00000164  00000+0 -57242-4 0  9994
2 22803  70.9902 103.0648 0016627   9.1003 351.0419 14.17249565697549
ARIANE 40 R/B           
1 22830U 93061H   26195.78742727  .00000074  00000+0  42714-4 0  9993
2 22830  98.4807 262.0694 0009478 267.1096  92.9004 14.32918418712309
COSMOS 2278             
1 23087U 94023A   26195.61662874 -.00000021  00000+0  13914-4 0  9996
2 23087  71.0524 269.5368 0009667 206.4362 153.6269 14.14393212662759
SL-16 R/B               
1 23088U 94023B   26195.32337604  .00000071  00000+0  61027-4 0  9997
2 23088  70.9983 164.9425 0001425 131.3069 228.8177 14.15024237664005
SL-16 R/B               
1 23343U 94074B   26195.88167190  .00000193  00000+0  32408-4 0  9995
2 23343  97.6986 221.4475 0007143 155.2032 295.6450 14.79524133706058
SL-16 R/B               
1 23405U 94077B   26195.82088726 -.00000102  00000+0 -27402-4 0  9998
2 23405  70.9822  85.0270 0004077 303.5802  56.4932 14.15574303634224
ARIANE 40+ R/B          
1 23561U 95021B   26195.79422374  .00000117  00000+0  50948-4 0  9993
2 23561  98.4401 265.4688 0007892 117.5067   8.0673 14.39847424637531
SL-16 R/B               
1 23705U 95058B   26195.62199184  .00000143  00000+0  97514-4 0  9994
2 23705  71.0210 273.7590 0014610 283.5085  76.4410 14.15508580585812
